start=new Date('2022-09-29T00:00:00.000Z').valueOf();
sats=[{"REF_FRAME":"TEME","LAUNCH_DATE":"2022-03-19","BSTAR":"0.00003296800000","TIME_SYSTEM":"UTC","PERIOD":"95.438","TLE_LINE2":"2 52121  53.2167 317.1806 0001838  48.5369 311.5781 15.08836258 30980","TLE_LINE1":"1 52121U 22029AK  22271.53695689  .00000237  00000-0  32968-4 0  9995","MEAN_MOTION":"15.08836258","CLASSIFICATION_TYPE":"U","SEMIMAJOR_AXIS":"6917.892","CENTER_NAME":"EARTH","REV_AT_EPOCH":"3098","COUNTRY_CODE":"US","ELEMENT_SET_NO":"999","OBJECT_NAME":"STARLINK-3678","MEAN_ELEMENT_THEORY":"SGP4","EPHEMERIS_TYPE":"0","APOAPSIS":"541.028","SITE":"AFETR","ARG_OF_PERICENTER":"48.5369","INCLINATION":"53.2167","OBJECT_ID":"2022-029AK","DECAY_DATE":null,"OBJECT_TYPE":"PAYLOAD","PERIAPSIS":"538.485","RCS_SIZE":"LARGE","GP_ID":"213710807","NORAD_CAT_ID":"52121","EPOCH":"2022-09-28T12:53:13.075296","RA_OF_ASC_NODE":"317.1806","FILE":"3586039","MEAN_MOTION_DOT":"0.00000237","MEAN_ANOMALY":"311.5781","ECCENTRICITY":"0.00018380","MEAN_MOTION_DDOT":"0.0000000000000"},{"INCLINATION":"53.2186","ARG_OF_PERICENTER":"47.5637","SITE":"AFETR","DECAY_DATE":null,"OBJECT_ID":"2022-029AL","OBJECT_TYPE":"PAYLOAD","EPOCH":"2022-09-28T13:23:40.044768","NORAD_CAT_ID":"52122","GP_ID":"213711060","PERIAPSIS":"538.487","RCS_SIZE":"LARGE","MEAN_ANOMALY":"312.5506","MEAN_MOTION_DOT":"0.00001372","RA_OF_ASC_NODE":"327.0909","FILE":"3586039","ECCENTRICITY":"0.00017860","MEAN_MOTION_DDOT":"0.0000000000000","BSTAR":"0.00010429000000","TIME_SYSTEM":"UTC","LAUNCH_DATE":"2022-03-19","REF_FRAME":"TEME","TLE_LINE1":"1 52122U 22029AL  22271.55810237  .00001372  00000-0  10429-3 0  9994","PERIOD":"95.437","TLE_LINE2":"2 52122  53.2186 327.0909 0001786  47.5637 312.5506 15.08847625 30857","CENTER_NAME":"EARTH","SEMIMAJOR_AXIS":"6917.857","CLASSIFICATION_TYPE":"U","MEAN_MOTION":"15.08847625","REV_AT_EPOCH":"3085","COUNTRY_CODE":"US","OBJECT_NAME":"STARLINK-3726","ELEMENT_SET_NO":"999","MEAN_ELEMENT_THEORY":"SGP4","APOAPSIS":"540.958","EPHEMERIS_TYPE":"0"},{"SITE":"AFETR","ARG_OF_PERICENTER":"58.6338","INCLINATION":"53.2187","OBJECT_ID":"2022-029AM","DECAY_DATE":null,"OBJECT_TYPE":"PAYLOAD","RCS_SIZE":"LARGE","PERIAPSIS":"538.724","GP_ID":"213711797","NORAD_CAT_ID":"52123","EPOCH":"2022-09-28T09:31:51.248352","FILE":"3586039","RA_OF_ASC_NODE":"317.8189","MEAN_MOTION_DOT":"0.00003285","MEAN_ANOMALY":"301.4804","MEAN_MOTION_DDOT":"0.0000000000000","ECCENTRICITY":"0.00015350","REF_FRAME":"TEME","LAUNCH_DATE":"2022-03-19","BSTAR":"0.00022447000000","TIME_SYSTEM":"UTC","PERIOD":"95.438","TLE_LINE2":"2 52123  53.2187 317.8189 0001535  58.6338 301.4804 15.08826835 30970","TLE_LINE1":"1 52123U 22029AM  22271.39712093  .00003285  00000-0  22447-3 0  9996","MEAN_MOTION":"15.08826835","CLASSIFICATION_TYPE":"U","SEMIMAJOR_AXIS":"6917.921","CENTER_NAME":"EARTH","REV_AT_EPOCH":"3097","COUNTRY_CODE":"US","ELEMENT_SET_NO":"999","OBJECT_NAME":"STARLINK-3725","MEAN_ELEMENT_THEORY":"SGP4","EPHEMERIS_TYPE":"0","APOAPSIS":"540.848"},{"RCS_SIZE":"LARGE","PERIAPSIS":"538.323","GP_ID":"213710559","NORAD_CAT_ID":"52124","EPOCH":"2022-09-28T13:13:04.243584","FILE":"3586039","RA_OF_ASC_NODE":"327.1249","MEAN_MOTION_DOT":"0.00003200","MEAN_ANOMALY":"314.3976","ECCENTRICITY":"0.00020050","MEAN_MOTION_DDOT":"0.0000000000000","SITE":"AFETR","ARG_OF_PERICENTER":"45.7180","INCLINATION":"53.2189","OBJECT_ID":"2022-029AN","DECAY_DATE":null,"OBJECT_TYPE":"PAYLOAD","COUNTRY_CODE":"US","ELEMENT_SET_NO":"999","OBJECT_NAME":"STARLINK-3684","MEAN_ELEMENT_THEORY":"SGP4","EPHEMERIS_TYPE":"0","APOAPSIS":"541.097","REF_FRAME":"TEME","LAUNCH_DATE":"2022-03-19","TIME_SYSTEM":"UTC","BSTAR":"0.00021897000000","TLE_LINE2":"2 52124  53.2189 327.1249 0002005  45.7180 314.3976 15.08851605 30852","PERIOD":"95.437","TLE_LINE1":"1 52124U 22029AN  22271.55074356  .00003200  00000-0  21897-3 0  9993","CLASSIFICATION_TYPE":"U","MEAN_MOTION":"15.08851605","SEMIMAJOR_AXIS":"6917.845","CENTER_NAME":"EARTH","REV_AT_EPOCH":"3085"},{"OBJECT_TYPE":"PAYLOAD","OBJECT_ID":"2022-029AP","DECAY_DATE":null,"SITE":"AFETR","ARG_OF_PERICENTER":"58.5177","INCLINATION":"53.2169","MEAN_MOTION_DDOT":"0.0000000000000","ECCENTRICITY":"0.00016610","FILE":"3586039","RA_OF_ASC_NODE":"317.2321","MEAN_MOTION_DOT":"0.00001692","MEAN_ANOMALY":"301.5977","PERIAPSIS":"538.612","RCS_SIZE":"LARGE","GP_ID":"213710308","NORAD_CAT_ID":"52125","EPOCH":"2022-09-28T12:37:19.493184","REV_AT_EPOCH":"3099","MEAN_MOTION":"15.08835031","CLASSIFICATION_TYPE":"U","CENTER_NAME":"EARTH","SEMIMAJOR_AXIS":"6917.896","TLE_LINE2":"2 52125  53.2169 317.2321 0001661  58.5177 301.5977 15.08835031 30996","PERIOD":"95.438","TLE_LINE1":"1 52125U 22029AP  22271.52592006  .00001692  00000-0  12442-3 0  9997","REF_FRAME":"TEME","LAUNCH_DATE":"2022-03-19","BSTAR":"0.00012442000000","TIME_SYSTEM":"UTC","EPHEMERIS_TYPE":"0","APOAPSIS":"540.910","MEAN_ELEMENT_THEORY":"SGP4","ELEMENT_SET_NO":"999","OBJECT_NAME":"STARLINK-3727","COUNTRY_CODE":"US"},{"OBJECT_TYPE":"PAYLOAD","ARG_OF_PERICENTER":"45.0901","INCLINATION":"53.2181","SITE":"AFETR","DECAY_DATE":null,"OBJECT_ID":"2022-029AQ","MEAN_MOTION_DOT":"0.00001310","MEAN_ANOMALY":"315.0218","FILE":"3586039","RA_OF_ASC_NODE":"317.1982","MEAN_MOTION_DDOT":"0.0000000000000","ECCENTRICITY":"0.00015670","NORAD_CAT_ID":"52126","EPOCH":"2022-09-28T12:47:54.794976","RCS_SIZE":"LARGE","PERIAPSIS":"538.661","GP_ID":"213711560","MEAN_MOTION":"15.08839989","CLASSIFICATION_TYPE":"U","SEMIMAJOR_AXIS":"6917.880","CENTER_NAME":"EARTH","REV_AT_EPOCH":"3098","BSTAR":"0.00010041000000","TIME_SYSTEM":"UTC","REF_FRAME":"TEME","LAUNCH_DATE":"2022-03-19","TLE_LINE2":"2 52126  53.2181 317.1982 0001567  45.0901 315.0218 15.08839989 30987","PERIOD":"95.438","TLE_LINE1":"1 52126U 22029AQ  22271.53327309  .00001310  00000-0  10041-3 0  9991","MEAN_ELEMENT_THEORY":"SGP4","APOAPSIS":"540.829","EPHEMERIS_TYPE":"0","COUNTRY_CODE":"US","ELEMENT_SET_NO":"999","OBJECT_NAME":"STARLINK-3732"},{"RA_OF_ASC_NODE":"316.6490","FILE":"3586258","MEAN_MOTION_DOT":"0.00005686","MEAN_ANOMALY":"319.7841","ECCENTRICITY":"0.00020870","MEAN_MOTION_DDOT":"0.0000000000000","PERIAPSIS":"538.261","RCS_SIZE":"LARGE","GP_ID":"213766943","NORAD_CAT_ID":"52127","EPOCH":"2022-09-28T15:42:47.148768","OBJECT_TYPE":"PAYLOAD","SITE":"AFETR","ARG_OF_PERICENTER":"40.3306","INCLINATION":"53.2152","OBJECT_ID":"2022-029AR","DECAY_DATE":null,"MEAN_ELEMENT_THEORY":"SGP4","EPHEMERIS_TYPE":"0","APOAPSIS":"541.149","COUNTRY_CODE":"US","ELEMENT_SET_NO":"999","OBJECT_NAME":"STARLINK-3715","MEAN_MOTION":"15.08853206","CLASSIFICATION_TYPE":"U","SEMIMAJOR_AXIS":"6917.840","CENTER_NAME":"EARTH","REV_AT_EPOCH":"3100","REF_FRAME":"TEME","LAUNCH_DATE":"2022-03-19","TIME_SYSTEM":"UTC","BSTAR":"0.00037492000000","PERIOD":"95.437","TLE_LINE2":"2 52127  53.2152 316.6490 0002087  40.3306 319.7841 15.08853206 31004","TLE_LINE1":"1 52127U 22029AR  22271.65471237  .00005686  00000-0  37492-3 0  9994"},{"OBJECT_TYPE":"PAYLOAD","OBJECT_ID":"2022-029AT","DECAY_DATE":null,"SITE":"AFETR","ARG_OF_PERICENTER":"51.3914","INCLINATION":"53.2170","MEAN_MOTION_DDOT":"0.0000000000000","ECCENTRICITY":"0.00016760","RA_OF_ASC_NODE":"316.6817","FILE":"3586258","MEAN_MOTION_DOT":"0.00002589","MEAN_ANOMALY":"308.7228","PERIAPSIS":"538.567","RCS_SIZE":"LARGE","GP_ID":"213767668","NORAD_CAT_ID":"52129","EPOCH":"2022-09-28T15:32:10.744512","REV_AT_EPOCH":"3101","MEAN_MOTION":"15.08846046","CLASSIFICATION_TYPE":"U","SEMIMAJOR_AXIS":"6917.862","CENTER_NAME":"EARTH","PERIOD":"95.437","TLE_LINE2":"2 52129  53.2170 316.6817 0001676  51.3914 308.7228 15.08846046 31011","TLE_LINE1":"1 52129U 22029AT  22271.64734658  .00002589  00000-0  18070-3 0  9994","REF_FRAME":"TEME","LAUNCH_DATE":"2022-03-19","BSTAR":"0.00018070000000","TIME_SYSTEM":"UTC","EPHEMERIS_TYPE":"0","APOAPSIS":"540.886","MEAN_ELEMENT_THEORY":"SGP4","ELEMENT_SET_NO":"999","OBJECT_NAME":"STARLINK-3661","COUNTRY_CODE":"US"},{"MEAN_ELEMENT_THEORY":"SGP4","APOAPSIS":"540.898","EPHEMERIS_TYPE":"0","COUNTRY_CODE":"US","ELEMENT_SET_NO":"999","OBJECT_NAME":"STARLINK-3711","CLASSIFICATION_TYPE":"U","MEAN_MOTION":"15.08843808","CENTER_NAME":"EARTH","SEMIMAJOR_AXIS":"6917.869","REV_AT_EPOCH":"3098","BSTAR":"0.00013290000000","TIME_SYSTEM":"UTC","REF_FRAME":"TEME","LAUNCH_DATE":"2022-03-19","TLE_LINE2":"2 52131  53.2198 317.5948 0001683  51.9272 308.1872 15.08843808 30987","PERIOD":"95.437","TLE_LINE1":"1 52131U 22029AV  22271.44494656  .00001828  00000-0  13290-3 0  9990","MEAN_MOTION_DOT":"0.00001828","MEAN_ANOMALY":"308.1872","RA_OF_ASC_NODE":"317.5948","FILE":"3586039","MEAN_MOTION_DDOT":"0.0000000000000","ECCENTRICITY":"0.00016830","NORAD_CAT_ID":"52131","EPOCH":"2022-09-28T10:40:43.382784","PERIAPSIS":"538.569","RCS_SIZE":"LARGE","GP_ID":"213710808","OBJECT_TYPE":"PAYLOAD","ARG_OF_PERICENTER":"51.9272","INCLINATION":"53.2198","SITE":"AFETR","DECAY_DATE":null,"OBJECT_ID":"2022-029AV"},{"RA_OF_ASC_NODE":"316.6750","FILE":"3586258","MEAN_MOTION_DOT":"0.00010338","MEAN_ANOMALY":"318.5342","ECCENTRICITY":"0.00020130","MEAN_MOTION_DDOT":"0.0000000000000","PERIAPSIS":"538.249","RCS_SIZE":"LARGE","GP_ID":"213766696","NORAD_CAT_ID":"52132","EPOCH":"2022-09-28T15:37:28.504704","OBJECT_TYPE":"PAYLOAD","SITE":"AFETR","ARG_OF_PERICENTER":"41.5803","INCLINATION":"53.2164","OBJECT_ID":"2022-029AW","DECAY_DATE":null,"MEAN_ELEMENT_THEORY":"SGP4","EPHEMERIS_TYPE":"0","APOAPSIS":"541.034","COUNTRY_CODE":"US","ELEMENT_SET_NO":"999","OBJECT_NAME":"STARLINK-3718","MEAN_MOTION":"15.08873925","CLASSIFICATION_TYPE":"U","SEMIMAJOR_AXIS":"6917.777","CENTER_NAME":"EARTH","REV_AT_EPOCH":"3101","REF_FRAME":"TEME","LAUNCH_DATE":"2022-03-19","BSTAR":"0.00066607000000","TIME_SYSTEM":"UTC","PERIOD":"95.435","TLE_LINE2":"2 52132  53.2164 316.6750 0002013  41.5803 318.5342 15.08873925 31010","TLE_LINE1":"1 52132U 22029AW  22271.65102436  .00010338  00000-0  66607-3 0  9992"}];
